{
  "norad_id": 51129,
  "name": "STARLINK-3396",
  "history": [
    {
      "epoch": "2026-04-14T19:06:35.453088Z",
      "apogee_km": 540.3860569953549,
      "perigee_km": 539.1007148196531,
      "latitude_deg": -3.453764120792337e-05,
      "longitude_deg": 7.417527088910308,
      "height_km": 540.3204814351343,
      "semi_major_axis_km": 6917.880385907503,
      "eccentricity": 9.29e-05,
      "inclination_deg": 53.2164,
      "raan_deg": 137.0328,
      "arg_perigee_deg": 60.2133,
      "mean_anomaly_deg": 299.8951,
      "mean_motion_rev_day": 15.08840001
    },
    {
      "epoch": "2026-04-15T09:25:04.214496Z",
      "apogee_km": 540.6207632762471,
      "perigee_km": 538.9083059303712,
      "latitude_deg": -1.003957119186685e-05,
      "longitude_deg": 149.53389895773495,
      "height_km": 540.3335485253549,
      "semi_major_axis_km": 6917.901534603308,
      "eccentricity": 0.00012377,
      "inclination_deg": 53.2174,
      "raan_deg": 134.3566,
      "arg_perigee_deg": 67.5486,
      "mean_anomaly_deg": 292.5637,
      "mean_motion_rev_day": 15.08833082
    },
    {
      "epoch": "2026-04-16T18:48:08.635392Z",
      "apogee_km": 540.0162104028796,
      "perigee_km": 539.1016909981981,
      "latitude_deg": 1.0019773219166012e-07,
      "longitude_deg": 1.146233577811822,
      "height_km": 540.3306240045291,
      "semi_major_axis_km": 6917.695950700539,
      "eccentricity": 6.61e-05,
      "inclination_deg": 53.2191,
      "raan_deg": 128.1084,
      "arg_perigee_deg": 74.1082,
      "mean_anomaly_deg": 285.9983,
      "mean_motion_rev_day": 15.08900343
    },
    {
      "epoch": "2026-04-17T18:38:57.150240Z",
      "apogee_km": 540.6206289208967,
      "perigee_km": 538.8846536943074,
      "latitude_deg": -7.251419293986027e-05,
      "longitude_deg": -1.9938179759056047,
      "height_km": 540.5467924112811,
      "semi_major_axis_km": 6917.889641307602,
      "eccentricity": 0.00012547,
      "inclination_deg": 53.2182,
      "raan_deg": 123.6499,
      "arg_perigee_deg": 83.2641,
      "mean_anomaly_deg": 276.8493,
      "mean_motion_rev_day": 15.08836973
    },
    {
      "epoch": "2026-04-18T07:22:01.911648Z",
      "apogee_km": 540.4053158011211,
      "perigee_km": 539.0058362479913,
      "latitude_deg": 2.3660917534648168e-05,
      "longitude_deg": 164.33620532583754,
      "height_km": 540.4966649094396,
      "semi_major_axis_km": 6917.8425760245555,
      "eccentricity": 0.00010115,
      "inclination_deg": 53.2176,
      "raan_deg": 121.272,
      "arg_perigee_deg": 81.3589,
      "mean_anomaly_deg": 278.7518,
      "mean_motion_rev_day": 15.08852371
    },
    {
      "epoch": "2026-04-19T04:02:02.554368Z",
      "apogee_km": 540.6153288357054,
      "perigee_km": 538.8577738812473,
      "latitude_deg": 6.469452660535238e-06,
      "longitude_deg": -150.38044284625082,
      "height_km": 540.350508318866,
      "semi_major_axis_km": 6917.873551358476,
      "eccentricity": 0.00012703,
      "inclination_deg": 53.2161,
      "raan_deg": 117.4068,
      "arg_perigee_deg": 71.2942,
      "mean_anomaly_deg": 288.8188,
      "mean_motion_rev_day": 15.08842237
    },
    {
      "epoch": "2026-04-20T07:03:36.401184Z",
      "apogee_km": 540.7268988446458,
      "perigee_km": 538.7857379794996,
      "latitude_deg": -2.2821335076614588e-05,
      "longitude_deg": 158.0633840816374,
      "height_km": 540.3583676353552,
      "semi_major_axis_km": 6917.893318412072,
      "eccentricity": 0.0001403,
      "inclination_deg": 53.2167,
      "raan_deg": 112.3516,
      "arg_perigee_deg": 72.3909,
      "mean_anomaly_deg": 287.7236,
      "mean_motion_rev_day": 15.0883577
    },
    {
      "epoch": "2026-04-21T06:54:23.448096Z",
      "apogee_km": 540.6795959513329,
      "perigee_km": 538.8271232708366,
      "latitude_deg": 4.2841703655239414e-05,
      "longitude_deg": 154.9271648632068,
      "height_km": 540.3049346923723,
      "semi_major_axis_km": 6917.890359611084,
      "eccentricity": 0.00013389,
      "inclination_deg": 53.2163,
      "raan_deg": 107.8907,
      "arg_perigee_deg": 68.1867,
      "mean_anomaly_deg": 291.9268,
      "mean_motion_rev_day": 15.08836738
    },
    {
      "epoch": "2026-04-22T16:17:29.430240Z",
      "apogee_km": 541.337011670712,
      "perigee_km": 538.2101160958364,
      "latitude_deg": -4.050320983521545e-05,
      "longitude_deg": 6.532800750255882,
      "height_km": 540.2711731118167,
      "semi_major_axis_km": 6917.910563883273,
      "eccentricity": 0.000226,
      "inclination_deg": 53.2162,
      "raan_deg": 101.6424,
      "arg_perigee_deg": 75.2981,
      "mean_anomaly_deg": 284.8261,
      "mean_motion_rev_day": 15.08830128
    },
    {
      "epoch": "2026-04-23T08:11:20.840352Z",
      "apogee_km": 540.8456050096047,
      "perigee_km": 538.6966260325989,
      "latitude_deg": -1.8071386063304723e-06,
      "longitude_deg": 124.44342753206547,
      "height_km": 540.4691875356896,
      "semi_major_axis_km": 6917.9081155211015,
      "eccentricity": 0.00015532,
      "inclination_deg": 53.2166,
      "raan_deg": 98.6701,
      "arg_perigee_deg": 79.4183,
      "mean_anomaly_deg": 280.6984,
      "mean_motion_rev_day": 15.08830929
    },
    {
      "epoch": "2026-04-24T08:02:07.533024Z",
      "apogee_km": 540.6039758375518,
      "perigee_km": 538.8371550153424,
      "latitude_deg": -2.6886052243949706e-05,
      "longitude_deg": 121.30982172578128,
      "height_km": 540.6534492402164,
      "semi_major_axis_km": 6917.857565426447,
      "eccentricity": 0.0001277,
      "inclination_deg": 53.2163,
      "raan_deg": 94.2104,
      "arg_perigee_deg": 92.4116,
      "mean_anomaly_deg": 267.7022,
      "mean_motion_rev_day": 15.08847467
    },
    {
      "epoch": "2026-04-25T15:49:50.660832Z",
      "apogee_km": 540.6755852011811,
      "perigee_km": 538.849259753646,
      "latitude_deg": -3.3961250030917685e-06,
      "longitude_deg": -2.8721477634871038,
      "height_km": 540.7207187311453,
      "semi_major_axis_km": 6917.899422477413,
      "eccentricity": 0.000132,
      "inclination_deg": 53.2168,
      "raan_deg": 88.2639,
      "arg_perigee_deg": 93.9307,
      "mean_anomaly_deg": 266.1836,
      "mean_motion_rev_day": 15.08833773
    },
    {
      "epoch": "2026-04-26T07:43:41.937024Z",
      "apogee_km": 540.679981450322,
      "perigee_km": 538.8167182101979,
      "latitude_deg": -2.1060188351679385e-05,
      "longitude_deg": 115.03759818533793,
      "height_km": 540.6905762612053,
      "semi_major_axis_km": 6917.88534983026,
      "eccentricity": 0.00013467,
      "inclination_deg": 53.2167,
      "raan_deg": 85.2902,
      "arg_perigee_deg": 92.8654,
      "mean_anomaly_deg": 267.2492,
      "mean_motion_rev_day": 15.08838377
    },
    {
      "epoch": "2026-04-27T20:17:34.407168Z",
      "apogee_km": 540.6984274203032,
      "perigee_km": 538.8015428089857,
      "latitude_deg": -1.2774519561528029e-05,
      "longitude_deg": -81.77007391971964,
      "height_km": 540.6805804615831,
      "semi_major_axis_km": 6917.886985114645,
      "eccentricity": 0.0001371,
      "inclination_deg": 53.2189,
      "raan_deg": 78.4528,
      "arg_perigee_deg": 92.0993,
      "mean_anomaly_deg": 268.0156,
      "mean_motion_rev_day": 15.08837842
    },
    {
      "epoch": "2026-04-28T07:25:16.519008Z",
      "apogee_km": 540.7472897870521,
      "perigee_km": 538.7535546319723,
      "latitude_deg": 6.684711489575379e-05,
      "longitude_deg": 108.76529393874263,
      "height_km": 540.6815795951277,
      "semi_major_axis_km": 6917.887422209512,
      "eccentricity": 0.0001441,
      "inclination_deg": 53.2181,
      "raan_deg": 76.3706,
      "arg_perigee_deg": 92.0408,
      "mean_anomaly_deg": 268.075,
      "mean_motion_rev_day": 15.08837699
    },
    {
      "epoch": "2026-04-29T13:37:36.283584Z",
      "apogee_km": 540.7058498900906,
      "perigee_km": 538.8089632438114,
      "latitude_deg": -1.318593107445168e-05,
      "longitude_deg": 8.792287266569232,
      "height_km": 540.6236526849486,
      "semi_major_axis_km": 6917.894406566951,
      "eccentricity": 0.0001371,
      "inclination_deg": 53.2184,
      "raan_deg": 70.7205,
      "arg_perigee_deg": 88.2144,
      "mean_anomaly_deg": 271.9005,
      "mean_motion_rev_day": 15.08835414
    },
    {
      "epoch": "2026-04-30T05:31:27.595200Z",
      "apogee_km": 540.7186800884019,
      "perigee_km": 538.784438447231,
      "latitude_deg": -1.591373747692732e-05,
      "longitude_deg": 126.7018961602329,
      "height_km": 540.6078591643817,
      "semi_major_axis_km": 6917.888559267816,
      "eccentricity": 0.0001398,
      "inclination_deg": 53.2183,
      "raan_deg": 67.7468,
      "arg_perigee_deg": 87.662,
      "mean_anomaly_deg": 272.4532,
      "mean_motion_rev_day": 15.08837327
    },
    {
      "epoch": "2026-05-02T02:02:15.626112Z",
      "apogee_km": 540.6801062435998,
      "perigee_km": 538.8261116943959,
      "latitude_deg": 3.0907228689925376e-05,
      "longitude_deg": 168.84860228511707,
      "height_km": 540.622505774795,
      "semi_major_axis_km": 6917.890108968997,
      "eccentricity": 0.000134,
      "inclination_deg": 53.2176,
      "raan_deg": 59.4217,
      "arg_perigee_deg": 88.3709,
      "mean_anomaly_deg": 271.7437,
      "mean_motion_rev_day": 15.0883682
    },
    {
      "epoch": "2026-05-03T19:22:16.995360Z",
      "apogee_km": 540.7729985659216,
      "perigee_km": 538.7336045050288,
      "latitude_deg": 4.022609986037836e-05,
      "longitude_deg": -100.58781575758776,
      "height_km": 540.7325840156418,
      "semi_major_axis_km": 6917.890301535475,
      "eccentricity": 0.0001474,
      "inclination_deg": 53.2182,
      "raan_deg": 51.6885,
      "arg_perigee_deg": 94.7056,
      "mean_anomaly_deg": 265.4105,
      "mean_motion_rev_day": 15.08836757
    }
  ]
}